ONEWEB-0280             
1 48998U 21060AH  26077.01645689  .00000041  00000+0  73014-4 0  9991
2 48998  87.9013 246.9048 0002011  91.9352 268.2010 13.16595340227562
ONEWEB-0281             
1 48999U 21060AJ  26077.24998913 -.00000008  00000+0 -54444-4 0  9999
2 48999  87.9012 246.8526 0001582  99.2757 260.8553 13.16594416227668
ONEWEB-0282             
1 49000U 21060AK  26076.97608047  .00000109  00000+0  25061-3 0  9990
2 49000  87.9009 246.9175 0001852  98.3467 261.7874 13.16594246227608
ONEWEB-0283             
1 49001U 21060AL  26076.96499693  .00000018  00000+0  13404-4 0  9993
2 49001  87.9010 246.9197 0001790 102.3152 257.8179 13.16594091227616
ONEWEB-0284             
1 49002U 21060AM  26077.03466783  .00000036  00000+0  61539-4 0  9999
2 49002  87.9013 246.8970 0001918  88.8659 271.2692 13.16594317227600
ONEWEB-0285             
1 49075U 21075A   26077.26180908  .00000547  00000+0  14860-2 0  9992
2 49075  87.9014   8.7094 0001870  79.6183 280.5157 13.12441655223281
ONEWEB-0286             
1 49076U 21075B   26077.09140759  .00000284  00000+0  75543-3 0  9998
2 49076  87.9001   8.7688 0001622  73.7982 286.3324 13.12445016222615
ONEWEB-0287             
1 49077U 21075C   26077.27106520  .00000054  00000+0  10488-3 0  9999
2 49077  87.9163  23.9195 0001676  66.4432 293.6876 13.17648522221653
ONEWEB-0288             
1 49078U 21075D   26077.29653834 -.00000359  00000+0 -10320-2 0  9991
2 49078  87.9023   8.6966 0001893  75.5505 284.5833 13.12443429223263
ONEWEB-0289             
1 49079U 21075E   26077.08192628 -.00000059  00000+0 -18513-3 0  9998
2 49079  87.9167  23.9695 0002257  76.8505 283.2879 13.17648350222205
ONEWEB-0290             
1 49080U 21075F   26077.28288473  .00000041  00000+0  71307-4 0  9996
2 49080  87.9172  23.8984 0002455  82.0984 278.0426 13.17649329221647
ONEWEB-0291             
1 49081U 21075G   26077.26769510  .00000048  00000+0  90996-4 0  9993
2 49081  87.9172  23.9097 0001967  68.3682 291.7659 13.17648751221630
ONEWEB-0293             
1 49082U 21075H   26077.29300762  .00000044  00000+0  81355-4 0  9992
2 49082  87.9161  23.9150 0001991  76.9887 283.1467 13.17649788221664
ONEWEB-0294             
1 49083U 21075J   26077.30331909 -.00000321  00000+0 -92857-3 0  9990
2 49083  87.9014   8.6978 0002208  77.0807 283.0568 13.12443286222657
ONEWEB-0295             
1 49084U 21075K   26077.29215988  .00000053  00000+0  10242-3 0  9995
2 49084  87.9161  23.9197 0001862  68.5940 291.5390 13.17650361221624
ONEWEB-0296             
1 49085U 21075L   26077.28298034 -.00000164  00000+0 -49175-3 0  9990
2 49085  87.9016   8.7058 0001874  67.1831 292.9496 13.12442592222654
ONEWEB-0297             
1 49086U 21075M   26077.08477397  .00000068  00000+0  15378-3 0  9999
2 49086  87.9004   8.7687 0001800  75.1110 285.0218 13.12445104223230
