[{"OBJECT_NAME":"ONEWEB-0280","OBJECT_ID":"2021-060AH","EPOCH":"2026-03-18T00:23:41.875296","MEAN_MOTION":13.1659534,"ECCENTRICITY":0.00020118,"INCLINATION":87.9013,"RA_OF_ASC_NODE":246.9048,"ARG_OF_PERICENTER":91.9352,"MEAN_ANOMALY":268.201,"EPHEMERIS_TYPE":0,"CLASSIFICATION_TYPE":"U","NORAD_CAT_ID":48998,"ELEMENT_SET_NO":999,"REV_AT_EPOCH":22756,"BSTAR":7.3013537e-5,"MEAN_MOTION_DOT":4.1e-7,"MEAN_MOTION_DDOT":0},{"OBJECT_NAME":"ONEWEB-0281","OBJECT_ID":"2021-060AJ","EPOCH":"2026-03-18T05:59:59.060832","MEAN_MOTION":13.16594416,"ECCENTRICITY":0.00015827,"INCLINATION":87.9012,"RA_OF_ASC_NODE":246.8526,"ARG_OF_PERICENTER":99.2757,"MEAN_ANOMALY":260.8553,"EPHEMERIS_TYPE":0,"CLASSIFICATION_TYPE":"U","NORAD_CAT_ID":48999,"ELEMENT_SET_NO":999,"REV_AT_EPOCH":22766,"BSTAR":-5.4444317e-5,"MEAN_MOTION_DOT":-8.0e-8,"MEAN_MOTION_DDOT":0},{"OBJECT_NAME":"ONEWEB-0282","OBJECT_ID":"2021-060AK","EPOCH":"2026-03-17T23:25:33.352608","MEAN_MOTION":13.16594246,"ECCENTRICITY":0.00018521,"INCLINATION":87.9009,"RA_OF_ASC_NODE":246.9175,"ARG_OF_PERICENTER":98.3467,"MEAN_ANOMALY":261.7874,"EPHEMERIS_TYPE":0,"CLASSIFICATION_TYPE":"U","NORAD_CAT_ID":49000,"ELEMENT_SET_NO":999,"REV_AT_EPOCH":22760,"BSTAR":0.00025061386,"MEAN_MOTION_DOT":1.09e-6,"MEAN_MOTION_DDOT":0},{"OBJECT_NAME":"ONEWEB-0283","OBJECT_ID":"2021-060AL","EPOCH":"2026-03-17T23:09:35.734752","MEAN_MOTION":13.16594091,"ECCENTRICITY":0.00017909,"INCLINATION":87.901,"RA_OF_ASC_NODE":246.9197,"ARG_OF_PERICENTER":102.3152,"MEAN_ANOMALY":257.8179,"EPHEMERIS_TYPE":0,"CLASSIFICATION_TYPE":"U","NORAD_CAT_ID":49001,"ELEMENT_SET_NO":999,"REV_AT_EPOCH":22761,"BSTAR":1.3403948e-5,"MEAN_MOTION_DOT":1.8e-7,"MEAN_MOTION_DDOT":0},{"OBJECT_NAME":"ONEWEB-0284","OBJECT_ID":"2021-060AM","EPOCH":"2026-03-18T00:49:55.300512","MEAN_MOTION":13.16594317,"ECCENTRICITY":0.00019185,"INCLINATION":87.9013,"RA_OF_ASC_NODE":246.897,"ARG_OF_PERICENTER":88.8659,"MEAN_ANOMALY":271.2692,"EPHEMERIS_TYPE":0,"CLASSIFICATION_TYPE":"U","NORAD_CAT_ID":49002,"ELEMENT_SET_NO":999,"REV_AT_EPOCH":22760,"BSTAR":6.1539255e-5,"MEAN_MOTION_DOT":3.6e-7,"MEAN_MOTION_DDOT":0},{"OBJECT_NAME":"ONEWEB-0285","OBJECT_ID":"2021-075A","EPOCH":"2026-03-18T06:17:00.304512","MEAN_MOTION":13.12441655,"ECCENTRICITY":0.00018706,"INCLINATION":87.9014,"RA_OF_ASC_NODE":8.7094,"ARG_OF_PERICENTER":79.6183,"MEAN_ANOMALY":280.5157,"EPHEMERIS_TYPE":0,"CLASSIFICATION_TYPE":"U","NORAD_CAT_ID":49075,"ELEMENT_SET_NO":999,"REV_AT_EPOCH":22328,"BSTAR":0.0014859678,"MEAN_MOTION_DOT":5.47e-6,"MEAN_MOTION_DDOT":0},{"OBJECT_NAME":"ONEWEB-0286","OBJECT_ID":"2021-075B","EPOCH":"2026-03-18T02:11:37.615776","MEAN_MOTION":13.12445016,"ECCENTRICITY":0.00016221,"INCLINATION":87.9001,"RA_OF_ASC_NODE":8.7688,"ARG_OF_PERICENTER":73.7982,"MEAN_ANOMALY":286.3324,"EPHEMERIS_TYPE":0,"CLASSIFICATION_TYPE":"U","NORAD_CAT_ID":49076,"ELEMENT_SET_NO":999,"REV_AT_EPOCH":22261,"BSTAR":0.00075542956,"MEAN_MOTION_DOT":2.84e-6,"MEAN_MOTION_DDOT":0},{"OBJECT_NAME":"ONEWEB-0287","OBJECT_ID":"2021-075C","EPOCH":"2026-03-18T06:30:20.033280","MEAN_MOTION":13.17648522,"ECCENTRICITY":0.00016765,"INCLINATION":87.9163,"RA_OF_ASC_NODE":23.9195,"ARG_OF_PERICENTER":66.4432,"MEAN_ANOMALY":293.6876,"EPHEMERIS_TYPE":0,"CLASSIFICATION_TYPE":"U","NORAD_CAT_ID":49077,"ELEMENT_SET_NO":999,"REV_AT_EPOCH":22165,"BSTAR":0.00010488069,"MEAN_MOTION_DOT":5.4e-7,"MEAN_MOTION_DDOT":0},{"OBJECT_NAME":"ONEWEB-0288","OBJECT_ID":"2021-075D","EPOCH":"2026-03-18T07:07:00.912576","MEAN_MOTION":13.12443429,"ECCENTRICITY":0.00018937,"INCLINATION":87.9023,"RA_OF_ASC_NODE":8.6966,"ARG_OF_PERICENTER":75.5505,"MEAN_ANOMALY":284.5833,"EPHEMERIS_TYPE":0,"CLASSIFICATION_TYPE":"U","NORAD_CAT_ID":49078,"ELEMENT_SET_NO":999,"REV_AT_EPOCH":22326,"BSTAR":-0.0010319842,"MEAN_MOTION_DOT":-3.59e-6,"MEAN_MOTION_DDOT":0},{"OBJECT_NAME":"ONEWEB-0289","OBJECT_ID":"2021-075E","EPOCH":"2026-03-18T01:57:58.430592","MEAN_MOTION":13.1764835,"ECCENTRICITY":0.00022579,"INCLINATION":87.9167,"RA_OF_ASC_NODE":23.9695,"ARG_OF_PERICENTER":76.8505,"MEAN_ANOMALY":283.2879,"EPHEMERIS_TYPE":0,"CLASSIFICATION_TYPE":"U","NORAD_CAT_ID":49079,"ELEMENT_SET_NO":999,"REV_AT_EPOCH":22220,"BSTAR":-0.00018512537,"MEAN_MOTION_DOT":-5.9e-7,"MEAN_MOTION_DDOT":0},{"OBJECT_NAME":"ONEWEB-0290","OBJECT_ID":"2021-075F","EPOCH":"2026-03-18T06:47:21.240672","MEAN_MOTION":13.17649329,"ECCENTRICITY":0.00024559,"INCLINATION":87.9172,"RA_OF_ASC_NODE":23.8984,"ARG_OF_PERICENTER":82.0984,"MEAN_ANOMALY":278.0426,"EPHEMERIS_TYPE":0,"CLASSIFICATION_TYPE":"U","NORAD_CAT_ID":49080,"ELEMENT_SET_NO":999,"REV_AT_EPOCH":22164,"BSTAR":7.1307449e-5,"MEAN_MOTION_DOT":4.1e-7,"MEAN_MOTION_DDOT":0},{"OBJECT_NAME":"ONEWEB-0291","OBJECT_ID":"2021-075G","EPOCH":"2026-03-18T06:25:28.856640","MEAN_MOTION":13.17648751,"ECCENTRICITY":0.00019676,"INCLINATION":87.9172,"RA_OF_ASC_NODE":23.9097,"ARG_OF_PERICENTER":68.3682,"MEAN_ANOMALY":291.7659,"EPHEMERIS_TYPE":0,"CLASSIFICATION_TYPE":"U","NORAD_CAT_ID":49081,"ELEMENT_SET_NO":999,"REV_AT_EPOCH":22163,"BSTAR":9.0995841e-5,"MEAN_MOTION_DOT":4.8e-7,"MEAN_MOTION_DDOT":0},{"OBJECT_NAME":"ONEWEB-0293","OBJECT_ID":"2021-075H","EPOCH":"2026-03-18T07:01:55.858368","MEAN_MOTION":13.17649788,"ECCENTRICITY":0.00019918,"INCLINATION":87.9161,"RA_OF_ASC_NODE":23.915,"ARG_OF_PERICENTER":76.9887,"MEAN_ANOMALY":283.1467,"EPHEMERIS_TYPE":0,"CLASSIFICATION_TYPE":"U","NORAD_CAT_ID":49082,"ELEMENT_SET_NO":999,"REV_AT_EPOCH":22166,"BSTAR":8.1354701e-5,"MEAN_MOTION_DOT":4.4e-7,"MEAN_MOTION_DDOT":0},{"OBJECT_NAME":"ONEWEB-0294","OBJECT_ID":"2021-075J","EPOCH":"2026-03-18T07:16:46.769376","MEAN_MOTION":13.12443286,"ECCENTRICITY":0.00022085,"INCLINATION":87.9014,"RA_OF_ASC_NODE":8.6978,"ARG_OF_PERICENTER":77.0807,"MEAN_ANOMALY":283.0568,"EPHEMERIS_TYPE":0,"CLASSIFICATION_TYPE":"U","NORAD_CAT_ID":49083,"ELEMENT_SET_NO":999,"REV_AT_EPOCH":22265,"BSTAR":-0.00092856641,"MEAN_MOTION_DOT":-3.21e-6,"MEAN_MOTION_DDOT":0},{"OBJECT_NAME":"ONEWEB-0295","OBJECT_ID":"2021-075K","EPOCH":"2026-03-18T07:00:42.613632","MEAN_MOTION":13.17650361,"ECCENTRICITY":0.00018621,"INCLINATION":87.9161,"RA_OF_ASC_NODE":23.9197,"ARG_OF_PERICENTER":68.594,"MEAN_ANOMALY":291.539,"EPHEMERIS_TYPE":0,"CLASSIFICATION_TYPE":"U","NORAD_CAT_ID":49084,"ELEMENT_SET_NO":999,"REV_AT_EPOCH":22162,"BSTAR":0.00010241805,"MEAN_MOTION_DOT":5.3e-7,"MEAN_MOTION_DDOT":0},{"OBJECT_NAME":"ONEWEB-0296","OBJECT_ID":"2021-075L","EPOCH":"2026-03-18T06:47:29.501376","MEAN_MOTION":13.12442592,"ECCENTRICITY":0.0001874,"INCLINATION":87.9016,"RA_OF_ASC_NODE":8.7058,"ARG_OF_PERICENTER":67.1831,"MEAN_ANOMALY":292.9496,"EPHEMERIS_TYPE":0,"CLASSIFICATION_TYPE":"U","NORAD_CAT_ID":49085,"ELEMENT_SET_NO":999,"REV_AT_EPOCH":22265,"BSTAR":-0.00049175116,"MEAN_MOTION_DOT":-1.64e-6,"MEAN_MOTION_DDOT":0},{"OBJECT_NAME":"ONEWEB-0297","OBJECT_ID":"2021-075M","EPOCH":"2026-03-18T02:02:04.471008","MEAN_MOTION":13.12445104,"ECCENTRICITY":0.00018005,"INCLINATION":87.9004,"RA_OF_ASC_NODE":8.7687,"ARG_OF_PERICENTER":75.111,"MEAN_ANOMALY":285.0218,"EPHEMERIS_TYPE":0,"CLASSIFICATION_TYPE":"U","NORAD_CAT_ID":49086,"ELEMENT_SET_NO":999,"REV_AT_EPOCH":22323,"BSTAR":0.00015378324,"MEAN_MOTION_DOT":6.8e-7,"MEAN_MOTION_DDOT":0}]
